{
  "type": "FeatureCollection",
  "features": [
    {
      "type": "Feature",
      "properties": {
        "norad_id": 38474,
        "name": "IRIDIUM 33 DEB",
        "group": "iridium-33-debris",
        "lat": -8.84805002099898,
        "lon": -167.46594037353407,
        "alt_km": 726.6992268468885,
        "timestamp": "2025-12-08T08:59:01.152205+00:00",
        "meta_object_name": "IRIDIUM 33 DEB",
        "meta_object_id": "1997-051AAB",
        "meta_epoch": "2025-12-06T19:41:55.119840",
        "meta_mean_motion": 14.50656984,
        "meta_eccentricity": 0.00279512,
        "meta_inclination": 86.3423,
        "meta_ra_of_asc_node": 12.6404,
        "meta_arg_of_pericenter": 106.4203,
        "meta_mean_anomaly": 254.0078,
        "meta_ephemeris_type": 0,
        "meta_classification_type": "U",
        "meta_norad_cat_id": 38474,
        "meta_element_set_no": 999,
        "meta_rev_at_epoch": 65232,
        "meta_bstar": 0.0010644651,
        "meta_mean_motion_dot": 4.219e-05,
        "meta_mean_motion_ddot": 0,
        "tle_line1": "1 38474U 97051AAB 25340.82077685  .00004219  00000+0  10645-2 0  9998",
        "tle_line2": "2 38474  86.3423  12.6404 0027951 106.4203 254.0078 14.50656984652323"
      },
      "geometry": {
        "type": "Point",
        "coordinates": [
          -167.46594037353407,
          -8.84805002099898
        ]
      }
    },
    {
      "type": "Feature",
      "properties": {
        "norad_id": 39777,
        "name": "IRIDIUM 33 DEB",
        "group": "iridium-33-debris",
        "lat": 34.52369795445042,
        "lon": -5.623815580457937,
        "alt_km": 679.5524034833925,
        "timestamp": "2025-12-08T08:59:01.152215+00:00",
        "meta_object_name": "IRIDIUM 33 DEB",
        "meta_object_id": "1997-051AAJ",
        "meta_epoch": "2025-12-06T00:14:36.412224",
        "meta_mean_motion": 14.5619016,
        "meta_eccentricity": 0.00596608,
        "meta_inclination": 85.9622,
        "meta_ra_of_asc_node": 178.3085,
        "meta_arg_of_pericenter": 209.6605,
        "meta_mean_anomaly": 150.1216,
        "meta_ephemeris_type": 0,
        "meta_classification_type": "U",
        "meta_norad_cat_id": 39777,
        "meta_element_set_no": 999,
        "meta_rev_at_epoch": 60087,
        "meta_bstar": 0.0037764101,
        "meta_mean_motion_dot": 0.00017134,
        "meta_mean_motion_ddot": 0,
        "tle_line1": "1 39777U 97051AAJ 25340.01014366  .00017134  00000+0  37764-2 0  9994",
        "tle_line2": "2 39777  85.9622 178.3085 0059660 209.6605 150.1216 14.56190160600873"
      },
      "geometry": {
        "type": "Point",
        "coordinates": [
          -5.623815580457937,
          34.52369795445042
        ]
      }
    },
    {
      "type": "Feature",
      "properties": {
        "norad_id": 39778,
        "name": "IRIDIUM 33 DEB",
        "group": "iridium-33-debris",
        "lat": 13.756097355177008,
        "lon": 46.00916461874022,
        "alt_km": 708.4449099718313,
        "timestamp": "2025-12-08T08:59:01.152226+00:00",
        "meta_object_name": "IRIDIUM 33 DEB",
        "meta_object_id": "1997-051AAK",
        "meta_epoch": "2025-12-07T14:45:16.913376",
        "meta_mean_motion": 14.54208544,
        "meta_eccentricity": 0.00084995,
        "meta_inclination": 86.3778,
        "meta_ra_of_asc_node": 45.4502,
        "meta_arg_of_pericenter": 56.9832,
        "meta_mean_anomaly": 303.219,
        "meta_ephemeris_type": 0,
        "meta_classification_type": "U",
        "meta_norad_cat_id": 39778,
        "meta_element_set_no": 999,
        "meta_rev_at_epoch": 60618,
        "meta_bstar": 0.0015411039,
        "meta_mean_motion_dot": 6.547e-05,
        "meta_mean_motion_ddot": 0,
        "tle_line1": "1 39778U 97051AAK 25341.61477909  .00006547  00000+0  15411-2 0  9999",
        "tle_line2": "2 39778  86.3778  45.4502 0008499  56.9832 303.2190 14.54208544606184"
      },
      "geometry": {
        "type": "Point",
        "coordinates": [
          46.00916461874022,
          13.756097355177008
        ]
      }
    },
    {
      "type": "Feature",
      "properties": {
        "norad_id": 39781,
        "name": "IRIDIUM 33 DEB",
        "group": "iridium-33-debris",
        "lat": -60.82098551071375,
        "lon": -106.75306132064354,
        "alt_km": 704.526771856008,
        "timestamp": "2025-12-08T08:59:01.152236+00:00",
        "meta_object_name": "IRIDIUM 33 DEB",
        "meta_object_id": "1997-051AAN",
        "meta_epoch": "2025-12-07T01:13:23.280096",
        "meta_mean_motion": 14.20376267,
        "meta_eccentricity": 0.01796039,
        "meta_inclination": 86.3686,
        "meta_ra_of_asc_node": 260.3225,
        "meta_arg_of_pericenter": 291.285,
        "meta_mean_anomaly": 84.633,
        "meta_ephemeris_type": 0,
        "meta_classification_type": "U",
        "meta_norad_cat_id": 39781,
        "meta_element_set_no": 999,
        "meta_rev_at_epoch": 8026,
        "meta_bstar": 0.0085418248,
        "meta_mean_motion_dot": 0.00021578,
        "meta_mean_motion_ddot": 0,
        "tle_line1": "1 39781U 97051AAN 25341.05096389  .00021578  00000+0  85418-2 0  9995",
        "tle_line2": "2 39781  86.3686 260.3225 0179603 291.2850  84.6330 14.20376267 80268"
      },
      "geometry": {
        "type": "Point",
        "coordinates": [
          -106.75306132064354,
          -60.82098551071375
        ]
      }
    },
    {
      "type": "Feature",
      "properties": {
        "norad_id": 39783,
        "name": "IRIDIUM 33 DEB",
        "group": "iridium-33-debris",
        "lat": -66.63990437853165,
        "lon": -111.46018739629191,
        "alt_km": 486.33731203271964,
        "timestamp": "2025-12-08T08:59:01.152247+00:00",
        "meta_object_name": "IRIDIUM 33 DEB",
        "meta_object_id": "1997-051AAQ",
        "meta_epoch": "2025-11-16T15:05:40.850592",
        "meta_mean_motion": 15.19327111,
        "meta_eccentricity": 0.00057535,
        "meta_inclination": 86.1306,
        "meta_ra_of_asc_node": 268.8004,
        "meta_arg_of_pericenter": 179.9151,
        "meta_mean_anomaly": 1.8316,
        "meta_ephemeris_type": 0,
        "meta_classification_type": "U",
        "meta_norad_cat_id": 39783,
        "meta_element_set_no": 999,
        "meta_rev_at_epoch": 60401,
        "meta_bstar": 0.010398125,
        "meta_mean_motion_dot": 0.00226179,
        "meta_mean_motion_ddot": 0,
        "tle_line1": "1 39783U 97051AAQ 25320.62894503  .00226179  00000+0  10398-1 0  9999",
        "tle_line2": "2 39783  86.1306 268.8004 0005753 179.9151   1.8316 15.19327111604018"
      },
      "geometry": {
        "type": "Point",
        "coordinates": [
          -111.46018739629191,
          -66.63990437853165
        ]
      }
    },
    {
      "type": "Feature",
      "properties": {
        "norad_id": 40996,
        "name": "IRIDIUM 33 DEB",
        "group": "iridium-33-debris",
        "lat": 0.542258314038946,
        "lon": 3.485489387564141,
        "alt_km": 580.4769887125549,
        "timestamp": "2025-12-08T08:59:01.152258+00:00",
        "meta_object_name": "IRIDIUM 33 DEB",
        "meta_object_id": "1997-051ABJ",
        "meta_epoch": "2025-12-02T08:31:11.979264",
        "meta_mean_motion": 14.95250831,
        "meta_eccentricity": 0.00120962,
        "meta_inclination": 86.3524,
        "meta_ra_of_asc_node": 6.2584,
        "meta_arg_of_pericenter": 92.2467,
        "meta_mean_anomaly": 284.2756,
        "meta_ephemeris_type": 0,
        "meta_classification_type": "U",
        "meta_norad_cat_id": 40996,
        "meta_element_set_no": 999,
        "meta_rev_at_epoch": 62333,
        "meta_bstar": 0.0031243939,
        "meta_mean_motion_dot": 0.0003457,
        "meta_mean_motion_ddot": 0,
        "tle_line1": "1 40996U 97051ABJ 25336.35499976  .00034570  00000+0  31244-2 0  9995",
        "tle_line2": "2 40996  86.3524   6.2584 0012096  92.2467 284.2756 14.95250831623330"
      },
      "geometry": {
        "type": "Point",
        "coordinates": [
          3.485489387564141,
          0.542258314038946
        ]
      }
    },
    {
      "type": "Feature",
      "properties": {
        "norad_id": 40998,
        "name": "IRIDIUM 33 DEB",
        "group": "iridium-33-debris",
        "lat": 2.595403100353361,
        "lon": -124.64292100540102,
        "alt_km": 743.8928156826751,
        "timestamp": "2025-12-08T08:59:01.152268+00:00",
        "meta_object_name": "IRIDIUM 33 DEB",
        "meta_object_id": "1997-051ABL",
        "meta_epoch": "2025-12-03T12:06:12.154176",
        "meta_mean_motion": 14.45043538,
        "meta_eccentricity": 0.00095708,
        "meta_inclination": 86.3836,
        "meta_ra_of_asc_node": 57.6004,
        "meta_arg_of_pericenter": 108.6038,
        "meta_mean_anomaly": 309.9308,
        "meta_ephemeris_type": 0,
        "meta_classification_type": "U",
        "meta_norad_cat_id": 40998,
        "meta_element_set_no": 999,
        "meta_rev_at_epoch": 6548,
        "meta_bstar": 0.00081638604,
        "meta_mean_motion_dot": 2.87e-05,
        "meta_mean_motion_ddot": 0,
        "tle_line1": "1 40998U 97051ABL 25337.50430734  .00002870  00000+0  81639-3 0  9994",
        "tle_line2": "2 40998  86.3836  57.6004 0009570 108.6038 309.9308 14.45043538 65487"
      },
      "geometry": {
        "type": "Point",
        "coordinates": [
          -124.64292100540102,
          2.595403100353361
        ]
      }
    }
  ]
}